[
    {
        "Altitude(m)": 714587.4292389061,
        "Argument of Periapsis(deg)": 0.009112096949301655,
        "Eccentricity": 0.0,
        "Inclination(deg)": 45.0,
        "Latitude(deg)": -37.172372259590965,
        "Longitude(deg)": -131.65655415463365,
        "Mean Anomaly(deg)": 238.31747331798468,
        "RAAN(deg)": 99.99139844683343,
        "Satellite Name": "Constellation 1 454",
        "Satellite Number": 454,
        "Semi-Major Axis(m)": 7083131.272910544,
        "Time(s)": 152
    },
    {
        "Altitude(m)": 714599.0029529907,
        "Argument of Periapsis(deg)": 0.009172044955547059,
        "Eccentricity": 0.0,
        "Inclination(deg)": 45.0,
        "Latitude(deg)": -37.20056478149457,
        "Longitude(deg)": -131.5934585900216,
        "Mean Anomaly(deg)": 238.37817445823458,
        "RAAN(deg)": 99.99134185766786,
        "Satellite Name": "Constellation 1 454",
        "Satellite Number": 454,
        "Semi-Major Axis(m)": 7083131.272910544,
        "Time(s)": 153
    },
    {
        "Altitude(m)": 714610.5622823893,
        "Argument of Periapsis(deg)": 0.009231992961792466,
        "Eccentricity": 0.0,
        "Inclination(deg)": 45.0,
        "Latitude(deg)": -37.22871898143947,
        "Longitude(deg)": -131.53031319980704,
        "Mean Anomaly(deg)": 238.43887559848451,
        "RAAN(deg)": 99.99128526850228,
        "Satellite Name": "Constellation 1 454",
        "Satellite Number": 454,
        "Semi-Major Axis(m)": 7083131.272910544,
        "Time(s)": 154
    },
    {
        "Altitude(m)": 714622.1071852715,
        "Argument of Periapsis(deg)": 0.009291940968037872,
        "Eccentricity": 0.0,
        "Inclination(deg)": 45.0,
        "Latitude(deg)": -37.25683479299906,
        "Longitude(deg)": -131.4671179638068,
        "Mean Anomaly(deg)": 238.4995767387344,
        "RAAN(deg)": 99.99122867933673,
        "Satellite Name": "Constellation 1 454",
        "Satellite Number": 454,
        "Semi-Major Axis(m)": 7083131.272910544,
        "Time(s)": 155
    },
    {
        "Altitude(m)": 714633.6376198479,
        "Argument of Periapsis(deg)": 0.009351888974283276,
        "Eccentricity": 0.0,
        "Inclination(deg)": 45.0,
        "Latitude(deg)": -37.28491214970274,
        "Longitude(deg)": -131.4038730302338,
        "Mean Anomaly(deg)": 238.5602778789843,
        "RAAN(deg)": 99.99117209017116,
        "Satellite Name": "Constellation 1 454",
        "Satellite Number": 454,
        "Semi-Major Axis(m)": 7083131.272910544,
        "Time(s)": 156
    },
    {
        "Altitude(m)": 714645.1535443886,
        "Argument of Periapsis(deg)": 0.00941183698052868,
        "Eccentricity": 0.0,
        "Inclination(deg)": 45.0,
        "Latitude(deg)": -37.312950985037276,
        "Longitude(deg)": -131.3405780433097,
        "Mean Anomaly(deg)": 238.62097901923414,
        "RAAN(deg)": 99.99111550100558,
        "Satellite Name": "Constellation 1 454",
        "Satellite Number": 454,
        "Semi-Major Axis(m)": 7083131.272910544,
        "Time(s)": 157
    },
    {
        "Altitude(m)": 714656.6549172017,
        "Argument of Periapsis(deg)": 0.009471784986774088,
        "Eccentricity": 0.0,
        "Inclination(deg)": 45.0,
        "Latitude(deg)": -37.34095123244579,
        "Longitude(deg)": -131.2772331518488,
        "Mean Anomaly(deg)": 238.68168015948416,
        "RAAN(deg)": 99.99105891184001,
        "Satellite Name": "Constellation 1 454",
        "Satellite Number": 454,
        "Semi-Major Axis(m)": 7083131.272910544,
        "Time(s)": 158
    },
    {
        "Altitude(m)": 714668.1416966529,
        "Argument of Periapsis(deg)": 0.009531732993019492,
        "Eccentricity": 0.0,
        "Inclination(deg)": 45.0,
        "Latitude(deg)": -37.36891282532896,
        "Longitude(deg)": -131.21383833687128,
        "Mean Anomaly(deg)": 238.74238129973398,
        "RAAN(deg)": 99.99100232267446,
        "Satellite Name": "Constellation 1 454",
        "Satellite Number": 454,
        "Semi-Major Axis(m)": 7083131.272910544,
        "Time(s)": 159
    },
    {
        "Altitude(m)": 714679.6138411502,
        "Argument of Periapsis(deg)": 0.009591680999264898,
        "Eccentricity": 0.0,
        "Inclination(deg)": 45.0,
        "Latitude(deg)": -37.3968356970453,
        "Longitude(deg)": -131.15039357970136,
        "Mean Anomaly(deg)": 238.80308243998385,
        "RAAN(deg)": 99.99094573350888,
        "Satellite Name": "Constellation 1 454",
        "Satellite Number": 454,
        "Semi-Major Axis(m)": 7083131.272910544,
        "Time(s)": 160
    },
    {
        "Altitude(m)": 714691.0713091518,
        "Argument of Periapsis(deg)": 0.009651629005510304,
        "Eccentricity": 0.0,
        "Inclination(deg)": 45.0,
        "Latitude(deg)": -37.42471978091127,
        "Longitude(deg)": -131.0868988619694,
        "Mean Anomaly(deg)": 238.86378358023376,
        "RAAN(deg)": 99.99088914434331,
        "Satellite Name": "Constellation 1 454",
        "Satellite Number": 454,
        "Semi-Major Axis(m)": 7083131.272910544,
        "Time(s)": 161
    },
    {
        "Altitude(m)": 714702.5140591739,
        "Argument of Periapsis(deg)": 0.00971157701175571,
        "Eccentricity": 0.0,
        "Inclination(deg)": 45.0,
        "Latitude(deg)": -37.45256501020188,
        "Longitude(deg)": -131.0233541656122,
        "Mean Anomaly(deg)": 238.9244847204837,
        "RAAN(deg)": 99.99083255517773,
        "Satellite Name": "Constellation 1 454",
        "Satellite Number": 454,
        "Semi-Major Axis(m)": 7083131.272910544,
        "Time(s)": 162
    },
    {
        "Altitude(m)": 714713.9420497676,
        "Argument of Periapsis(deg)": 0.009771525018001118,
        "Eccentricity": 0.0,
        "Inclination(deg)": 45.0,
        "Latitude(deg)": -37.480371318150546,
        "Longitude(deg)": -130.9597596409728,
        "Mean Anomaly(deg)": 238.98518586073357,
        "RAAN(deg)": 99.99077596601218,
        "Satellite Name": "Constellation 1 454",
        "Satellite Number": 454,
        "Semi-Major Axis(m)": 7083131.272910544,
        "Time(s)": 163
    },
    {
        "Altitude(m)": 714725.3552395428,
        "Argument of Periapsis(deg)": 0.00983147302424652,
        "Eccentricity": 0.0,
        "Inclination(deg)": 45.0,
        "Latitude(deg)": -37.50813863795068,
        "Longitude(deg)": -130.89611493441222,
        "Mean Anomaly(deg)": 239.04588700098347,
        "RAAN(deg)": 99.99071937684661,
        "Satellite Name": "Constellation 1 454",
        "Satellite Number": 454,
        "Semi-Major Axis(m)": 7083131.272910544,
        "Time(s)": 164
    },
    {
        "Altitude(m)": 714736.7535871614,
        "Argument of Periapsis(deg)": 0.009891421030491928,
        "Eccentricity": 0.0,
        "Inclination(deg)": 45.0,
        "Latitude(deg)": -37.53586690275435,
        "Longitude(deg)": -130.8324201968946,
        "Mean Anomaly(deg)": 239.10658814123337,
        "RAAN(deg)": 99.99066278768103,
        "Satellite Name": "Constellation 1 454",
        "Satellite Number": 454,
        "Semi-Major Axis(m)": 7083131.272910544,
        "Time(s)": 165
    },
    {
        "Altitude(m)": 714748.1370513219,
        "Argument of Periapsis(deg)": 0.009951369036737332,
        "Eccentricity": 0.0,
        "Inclination(deg)": 45.0,
        "Latitude(deg)": -37.56355604567397,
        "Longitude(deg)": -130.7686754115992,
        "Mean Anomaly(deg)": 239.1672892814833,
        "RAAN(deg)": 99.99060619851547,
        "Satellite Name": "Constellation 1 454",
        "Satellite Number": 454,
        "Semi-Major Axis(m)": 7083131.272910544,
        "Time(s)": 166
    },
    {
        "Altitude(m)": 714759.5055907915,
        "Argument of Periapsis(deg)": 0.010011317042982738,
        "Eccentricity": 0.0,
        "Inclination(deg)": 45.0,
        "Latitude(deg)": -37.591205999781835,
        "Longitude(deg)": -130.70488056202,
        "Mean Anomaly(deg)": 239.22799042173318,
        "RAAN(deg)": 99.99054960934988,
        "Satellite Name": "Constellation 1 454",
        "Satellite Number": 454,
        "Semi-Major Axis(m)": 7083131.272910544,
        "Time(s)": 167
    },
    {
        "Altitude(m)": 714770.8591643748,
        "Argument of Periapsis(deg)": 0.010071265049228144,
        "Eccentricity": 0.0,
        "Inclination(deg)": 45.0,
        "Latitude(deg)": -37.61881669811109,
        "Longitude(deg)": -130.64103563196622,
        "Mean Anomaly(deg)": 239.2886915619831,
        "RAAN(deg)": 99.99049302018432,
        "Satellite Name": "Constellation 1 454",
        "Satellite Number": 454,
        "Semi-Major Axis(m)": 7083131.272910544,
        "Time(s)": 168
    },
    {
        "Altitude(m)": 714782.1977309296,
        "Argument of Periapsis(deg)": 0.01013121305547355,
        "Eccentricity": 0.0,
        "Inclination(deg)": 45.0,
        "Latitude(deg)": -37.6463880736559,
        "Longitude(deg)": -130.5771406055638,
        "Mean Anomaly(deg)": 239.34939270223293,
        "RAAN(deg)": 99.99043643101876,
        "Satellite Name": "Constellation 1 454",
        "Satellite Number": 454,
        "Semi-Major Axis(m)": 7083131.272910544,
        "Time(s)": 169
    },
    {
        "Altitude(m)": 714793.5212493677,
        "Argument of Periapsis(deg)": 0.010191161061718957,
        "Eccentricity": 0.0,
        "Inclination(deg)": 45.0,
        "Latitude(deg)": -37.67392005937162,
        "Longitude(deg)": -130.51319546725742,
        "Mean Anomaly(deg)": 239.4100938424829,
        "RAAN(deg)": 99.99037984185318,
        "Satellite Name": "Constellation 1 454",
        "Satellite Number": 454,
        "Semi-Major Axis(m)": 7083131.272910544,
        "Time(s)": 170
    }
]